OBJECT_NAME,OBJECT_ID,EPOCH,MEAN_MOTION,ECCENTRICITY,INCLINATION,RA_OF_ASC_NODE,ARG_OF_PERICENTER,MEAN_ANOMALY,EPHEMERIS_TYPE,CLASSIFICATION_TYPE,NORAD_CAT_ID,ELEMENT_SET_NO,REV_AT_EPOCH,BSTAR,MEAN_MOTION_DOT,MEAN_MOTION_DDOT
SL-16 R/B,1994-077B,2026-07-02T12:36:35.553600,14.15578070,.00038396,70.9833,110.8944,313.8453,46.2352,0,U,23405,999,63248,-.24352563E-4,-.96E-6,0
ARIANE 40+ R/B,1995-021B,2026-07-02T11:19:34.447872,14.39841957,.00074045,98.4407,253.3258,149.7029,220.8996,0,U,23561,999,63576,.1125092E-3,.31E-5,0
SL-16 R/B,1995-058B,2026-07-02T14:36:21.496032,14.15510608,.00146331,71.0228,298.9807,299.2218,60.7441,0,U,23705,999,58411,-.98104186E-4,-.24E-5,0
SL-16 R/B,1996-051B,2026-07-02T12:58:47.541792,14.12451573,.0016782,70.7655,292.1557,314.9866,44.9893,0,U,24298,999,53786,.11730423E-3,.168E-5,0
ORBVIEW 2 (SEASTAR),1997-037A,2026-07-02T10:09:47.146176,14.35561588,.00033229,98.8701,350.8656,86.2007,273.9557,0,U,24883,999,52493,.11256911E-3,.277E-5,0
SL-16 R/B,1998-043G,2026-07-02T14:06:57.210624,14.26071240,.00106648,98.8371,137.8804,45.9843,314.2214,0,U,25400,999,45536,.51374982E-4,.77E-6,0
SL-16 R/B,1998-045B,2026-07-02T13:30:56.238624,14.16206945,.00087727,71.0128,299.9928,222.5185,137.5260,0,U,25407,999,44336,.11203658E-3,.174E-5,0
ISS (ZARYA),1998-067A,2026-07-01T12:11:46.289760,15.49503254,.00042241,51.6311,229.1989,255.0896,104.9625,0,U,25544,999,57397,.11826728E-3,.6185E-4,0
CZ-4B R/B,1999-025C,2026-07-02T12:53:53.060352,14.18286103,.00373669,98.6476,224.9891,16.2605,146.9355,0,U,25732,999,40444,.56533441E-4,.74E-6,0
OKEAN-O,1999-039A,2026-07-02T14:55:58.699488,14.80485585,.00011673,97.9308,242.2424,71.2630,288.8709,0,U,25860,999,45139,.93861226E-4,.666E-5,0
SL-16 R/B,1999-039B,2026-07-02T15:06:41.353920,14.81860747,.00135418,97.9830,242.4483,241.7350,118.2496,0,U,25861,999,45388,.82021669E-4,.595E-5,0
DELTA 2 R/B,1999-041E,2026-07-02T11:08:27.830400,14.12047639,.05010938,51.7615,202.7655,327.1650,29.9042,0,U,25876,999,37924,.25439675E-3,.1346E-4,0
HELIOS 1B,1999-064A,2026-07-02T15:28:28.803648,14.88048469,.00023798,98.1599,89.2311,70.0139,290.1332,0,U,25977,999,70235,.18357296E-3,.1628E-4,0
TERRA,1999-068A,2026-07-02T15:35:17.179296,14.61115707,.00027479,97.9448,232.5822,148.4312,7.6199,0,U,25994,999,41186,.10468059E-3,.47E-5,0
SL-16 R/B,2000-006B,2026-07-02T11:12:31.125024,14.15840980,.00165446,71.0011,216.4970,358.7083,1.3994,0,U,26070,999,36480,.37219458E-4,.26E-6,0
TITAN 4B R/B,2000-047B,2026-07-02T13:23:06.961344,15.10281193,.00458805,67.9888,77.3071,271.5936,87.9958,0,U,26474,999,41025,.19138791E-3,.3079E-4,0
ENVISAT,2002-009A,2026-07-02T15:17:13.471008,14.39068382,.00013879,98.3840,134.6113,85.6446,88.0122,0,U,27386,999,27570,.4720195E-4,.103E-5,0
IDEFIX & ARIANE 42P R/B,2002-021B,2026-07-02T13:56:58.623648,14.31089134,.00111123,98.5943,120.8977,204.3651,155.7008,0,U,27422,999,26045,.11111833E-3,.249E-5,0
AQUA,2002-022A,2026-07-02T15:59:04.407072,14.62182063,.0000691,98.4285,153.2589,81.2980,29.1396,0,U,27424,999,28553,.19285985E-3,.921E-5,0
CZ-4B R/B,2002-024C,2026-07-02T14:36:52.656192,14.14566803,.00510225,98.8692,236.3284,57.3217,103.7872,0,U,27432,999,24548,.49256415E-4,.52E-6,0
MIDORI II (ADEOS-II),2002-056A,2026-07-02T11:14:27.281184,14.29357802,.00019299,98.7886,142.8586,55.9803,304.1561,0,U,27597,999,22669,.1260932E-3,.276E-5,0
H-2A R/B,2002-056E,2026-07-02T10:38:45.057984,14.33828772,.00700455,98.3320,139.5625,178.7310,291.6015,0,U,27601,999,23055,.98775867E-4,.241E-5,0
CZ-4B R/B,2003-049C,2026-07-02T11:55:20.865792,14.55109864,.00470276,98.6901,182.9531,240.7006,118.9486,0,U,28059,999,20329,.88875456E-4,.337E-5,0
CZ-2C R/B,2004-012C,2026-07-02T11:34:25.456512,15.82218292,.00109144,97.7059,260.9607,229.1129,130.9194,0,U,28222,999,22231,.63899496E-3,.132935E-2,0
SL-16 R/B,2004-021B,2026-07-02T05:21:03.703392,14.14610336,.00066521,71.0013,352.1326,236.5077,123.5411,0,U,28353,999,13903,.1722441E-3,.284E-5,0
CZ-4B R/B,2004-035C,2026-07-02T13:26:28.717440,15.30840917,.00288542,97.3356,216.4619,280.3056,79.4933,0,U,28415,999,19747,.26953124E-3,.8057E-4,0
CZ-2C R/B,2004-046B,2026-07-02T11:26:56.473728,14.27030121,.01393769,98.1932,91.3016,174.8896,185.3747,0,U,28480,999,12487,.60209314E-4,.122E-5,0
ARIANE 5 R/B,2004-049H,2026-07-02T11:43:01.051968,14.85467300,.00833673,98.2731,356.3331,339.8866,19.9069,0,U,28499,999,16283,.73601615E-4,.609E-5,0
CZ-2D R/B,2005-024B,2026-07-02T12:17:56.465376,15.71309237,.00004364,97.3468,203.7241,327.5456,32.5780,0,U,28738,999,15774,.48297109E-3,.61403E-3,0
ALOS (DAICHI),2006-002A,2026-07-02T14:37:27.997248,14.70081885,.00008966,98.1329,139.1293,64.6664,295.4634,0,U,28931,999,9036,.21040066E-3,.1214E-4,0
