SL-16 R/B               
1 23405U 94077B   26183.52541150 -.00000096  00000+0 -24353-4 0  9991
2 23405  70.9833 110.8944 0003839 313.8453  46.2352 14.15578070632486
ARIANE 40+ R/B          
1 23561U 95021B   26183.47192648  .00000310  00000+0  11251-3 0  9991
2 23561  98.4407 253.3258 0007404 149.7029 220.8996 14.39841957635760
SL-16 R/B               
1 23705U 95058B   26183.60858213 -.00000240  00000+0 -98104-4 0  9990
2 23705  71.0228 298.9807 0014633 299.2218  60.7441 14.15510608584114
SL-16 R/B               
1 24298U 96051B   26183.54082803  .00000168  00000+0  11730-3 0  9995
2 24298  70.7655 292.1557 0016782 314.9866  44.9893 14.12451573537868
ORBVIEW 2 (SEASTAR)     
1 24883U 97037A   26183.42346234  .00000277  00000+0  11257-3 0  9993
2 24883  98.8701 350.8656 0003322  86.2007 273.9557 14.35561588524933
SL-16 R/B               
1 25400U 98043G   26183.58816216  .00000077  00000+0  51375-4 0  9990
2 25400  98.8371 137.8804 0010664  45.9843 314.2214 14.26071240455367
SL-16 R/B               
1 25407U 98045B   26183.56315091  .00000174  00000+0  11204-3 0  9996
2 25407  71.0128 299.9928 0008772 222.5185 137.5260 14.16206945443368
ISS (ZARYA)             
1 25544U 98067A   26182.50817465  .00006185  00000+0  11827-3 0  9996
2 25544  51.6311 229.1989 0004224 255.0896 104.9625 15.49503254573972
CZ-4B R/B               
1 25732U 99025C   26183.53741968  .00000074  00000+0  56533-4 0  9993
2 25732  98.6476 224.9891 0037366  16.2605 146.9355 14.18286103404444
OKEAN-O                 
1 25860U 99039A   26183.62220717  .00000666  00000+0  93861-4 0  9996
2 25860  97.9308 242.2424 0001167  71.2630 288.8709 14.80485585451395
SL-16 R/B               
1 25861U 99039B   26183.62964530  .00000595  00000+0  82022-4 0  9993
2 25861  97.9830 242.4483 0013541 241.7350 118.2496 14.81860747453888
DELTA 2 R/B             
1 25876U 99041E   26183.46421100  .00001346  00000+0  25440-3 0  9990
2 25876  51.7615 202.7655 0501093 327.1650  29.9042 14.12047639379242
HELIOS 1B               
1 25977U 99064A   26183.64477782  .00001628  00000+0  18357-3 0  9996
2 25977  98.1599  89.2311 0002379  70.0139 290.1332 14.88048469702357
TERRA                   
1 25994U 99068A   26183.64950439  .00000470  00000+0  10468-3 0  9993
2 25994  97.9448 232.5822 0002747 148.4312   7.6199 14.61115707411864
SL-16 R/B               
1 26070U 00006B   26183.46702691  .00000026  00000+0  37219-4 0  9999
2 26070  71.0011 216.4970 0016544 358.7083   1.3994 14.15840980364807
TITAN 4B R/B            
1 26474U 00047B   26183.55771946  .00003079  00000+0  19139-3 0  9992
2 26474  67.9888  77.3071 0045880 271.5936  87.9958 15.10281193410253
ENVISAT                 
1 27386U 02009A   26183.63696147  .00000103  00000+0  47202-4 0  9991
2 27386  98.3840 134.6113 0001387  85.6446  88.0122 14.39068382275707
IDEFIX & ARIANE 42P R/B 
1 27422U 02021B   26183.58123407  .00000249  00000+0  11112-3 0  9995
2 27422  98.5943 120.8977 0011112 204.3651 155.7008 14.31089134260455
AQUA                    
1 27424U 02022A   26183.66602323  .00000921  00000+0  19286-3 0  9993
2 27424  98.4285 153.2589 0000691  81.2980  29.1396 14.62182063285530
CZ-4B R/B               
1 27432U 02024C   26183.60894278  .00000052  00000+0  49256-4 0  9996
2 27432  98.8692 236.3284 0051022  57.3217 103.7872 14.14566803245484
MIDORI II (ADEOS-II)    
1 27597U 02056A   26183.46837131  .00000276  00000+0  12609-3 0  9991
2 27597  98.7886 142.8586 0001929  55.9803 304.1561 14.29357802226699
H-2A R/B                
1 27601U 02056E   26183.44357706  .00000241  00000+0  98776-4 0  9992
2 27601  98.3320 139.5625 0070045 178.7310 291.6015 14.33828772230551
CZ-4B R/B               
1 28059U 03049C   26183.49676928  .00000337  00000+0  88875-4 0  9993
2 28059  98.6901 182.9531 0047027 240.7006 118.9486 14.55109864203293
CZ-2C R/B               
1 28222U 04012C   26183.48223908  .00132935  00000+0  63899-3 0  9999
2 28222  97.7059 260.9607 0010914 229.1129 130.9194 15.82218292222313
SL-16 R/B               
1 28353U 04021B   26183.22295953  .00000284  00000+0  17224-3 0  9997
2 28353  71.0013 352.1326 0006652 236.5077 123.5411 14.14610336139038
CZ-4B R/B               
1 28415U 04035C   26183.56005460  .00008057  00000+0  26953-3 0  9995
2 28415  97.3356 216.4619 0028854 280.3056  79.4933 15.30840917197476
CZ-2C R/B               
1 28480U 04046B   26183.47704252  .00000122  00000+0  60209-4 0  9992
2 28480  98.1932  91.3016 0139376 174.8896 185.3747 14.27030121124876
ARIANE 5 R/B            
1 28499U 04049H   26183.48820662  .00000609  00000+0  73602-4 0  9991
2 28499  98.2731 356.3331 0083367 339.8866  19.9069 14.85467300162830
CZ-2D R/B               
1 28738U 05024B   26183.51245909  .00061403  00000+0  48297-3 0  9990
2 28738  97.3468 203.7241 0000436 327.5456  32.5780 15.71309237157748
ALOS (DAICHI)           
1 28931U 06002A   26183.60935182  .00001214  00000+0  21040-3 0  9992
2 28931  98.1329 139.1293 0000896  64.6664 295.4634 14.70081885 90363
